NORAD_CAT_ID,OBJECT_NAME,OBJECT_TYPE,EPOCH,MEAN_MOTION,ECCENTRICITY,INCLINATION,RA_OF_ASC_NODE,ARG_OF_PERICENTER,MEAN_ANOMALY,BSTAR,MEAN_MOTION_DOT,MEAN_MOTION_DDOT,TLE_LINE0,TLE_LINE1,TLE_LINE2,SEMIMAJOR_AXIS,PERIOD,APOGEE,PERIGEE,DECAYED
54196.0,STARLINK-5237,PAYLOAD,2024-06-08 18:21:56,15.08844334,3.73e-05,53.2174,342.2462,82.944,277.1595,0.00014988,2.099e-05,0.0,0 STARLINK-5237,1 54196U 22141AR  24160.76524181  .00002099  00000-0  14988-3 0  9995,2 54196  53.2174 342.2462 0000373  82.9440 277.1595 15.08844334 89779,6917.867,95.437,539.99,539.474,0.0
54196.0,STARLINK-5237,PAYLOAD,2024-06-08 21:32:42,15.08856519,0.0001431,53.216,341.6507,82.6206,277.4948,0.0004378,6.69e-05,0.0,0 STARLINK-5237,1 54196U 22141AR  24160.89771957  .00006690  00000-0  43780-3 0  9997,2 54196  53.2160 341.6507 0001431  82.6206 277.4948 15.08856519 89560,6917.83,95.437,540.685,538.705,0.0
54196.0,STARLINK-5237,PAYLOAD,2024-06-09 05:29:39,15.08842709,0.0001717,53.2171,340.164,90.2214,269.8975,0.00013433,1.851e-05,0.0,0 STARLINK-5237,1 54196U 22141AR  24161.22892541  .00001851  00000-0  13433-3 0  9994,2 54196  53.2171 340.1640 0001717  90.2214 269.8975 15.08842709 89847,6917.872,95.437,540.925,538.549,0.0
54196.0,STARLINK-5237,PAYLOAD,2024-06-09 19:48:07,15.08842089,0.0001497,53.2169,337.4883,94.1037,266.0127,-4.4472e-06,-3.59e-06,0.0,0 STARLINK-5237,1 54196U 22141AR  24161.82508418 -.00000359  00000-0 -44472-5 0  9990,2 54196  53.2169 337.4883 0001497  94.1037 266.0127 15.08842089 89707,6917.874,95.437,540.775,538.703,0.0
54196.0,STARLINK-5237,PAYLOAD,2024-06-10 05:20:26,15.08840364,0.0001526,53.2163,335.7034,98.1967,261.9198,3.9978e-05,3.48e-06,0.0,0 STARLINK-5237,1 54196U 22141AR  24162.22252502  .00000348  00000-0  39978-4 0  9995,2 54196  53.2163 335.7034 0001526  98.1967 261.9198 15.08840364 89996,6917.879,95.438,540.8,538.689,0.0
54196.0,STARLINK-5237,PAYLOAD,2024-06-10 18:03:31,15.08844992,0.0001473,53.2179,333.3255,93.4699,266.6462,0.00014705,2.053e-05,0.0,0 STARLINK-5237,1 54196U 22141AR  24162.75244425  .00002053  00000-0  14705-3 0  9993,2 54196  53.2179 333.3255 0001473  93.4699 266.6462 15.08844992 89844,6917.865,95.437,540.749,538.711,0.0
54196.0,STARLINK-5237,PAYLOAD,2024-06-11 11:32:45,15.08842043,0.0001422,53.2185,330.0537,98.7256,261.3897,0.00021608,3.153e-05,0.0,0 STARLINK-5237,1 54196U 22141AR  24163.48108637  .00003153  00000-0  21608-3 0  9990,2 54196  53.2185 330.0537 0001422  98.7256 261.3897 15.08842043 89950,6917.874,95.437,540.723,538.755,0.0
54196.0,STARLINK-5237,PAYLOAD,2024-06-12 03:26:36,15.08845039,0.0001172,53.2161,327.0796,90.7793,269.3333,0.00017672,2.526e-05,0.0,0 STARLINK-5237,1 54196U 22141AR  24164.14348361  .00002526  00000-0  17672-3 0  9993,2 54196  53.2161 327.0796 0001172  90.7793 269.3333 15.08845039 90286,6917.865,95.437,540.541,538.919,0.0
54196.0,STARLINK-5237,PAYLOAD,2024-06-12 09:48:10,15.08837903,0.0001851,53.2182,325.8932,81.1983,278.9219,4.8951e-05,4.91e-06,0.0,0 STARLINK-5237,1 54196U 22141AR  24164.40844957  .00000491  00000-0  48951-4 0  9998,2 54196  53.2182 325.8932 0001851  81.1983 278.9219 15.08837903 90321,6917.887,95.438,541.032,538.471,0.0
54196.0,STARLINK-5237,PAYLOAD,2024-06-12 17:45:05,15.08834186,0.0001266,53.2189,324.409,86.5517,273.562,-3.9235e-05,-9.12e-06,0.0,0 STARLINK-5237,1 54196U 22141AR  24164.73965029 -.00000912  00000-0 -39235-4 0  9993,2 54196  53.2189 324.4090 0001266  86.5517 273.5620 15.08834186 90147,6917.898,95.438,540.639,538.887,0.0
54196.0,STARLINK-5237,PAYLOAD,2024-06-13 11:14:20,15.08839491,0.0001279,53.2186,321.1384,92.2321,267.8817,0.00010255,1.345e-05,0.0,0 STARLINK-5237,1 54196U 22141AR  24165.46829092  .00001345  00000-0  10255-3 0  9992,2 54196  53.2186 321.1384 0001279  92.2321 267.8817 15.08839491 90480,6917.882,95.438,540.632,538.862,0.0
54196.0,STARLINK-5237,PAYLOAD,2024-06-13 14:25:06,15.08842033,0.0001243,53.2182,320.5438,91.2961,268.8173,0.00011767,1.585e-05,0.0,0 STARLINK-5237,1 54196U 22141AR  24165.60076966  .00001585  00000-0  11767-3 0  9997,2 54196  53.2182 320.5438 0001243  91.2961 268.8173 15.08842033 90278,6917.874,95.437,540.599,538.879,0.0
54196.0,STARLINK-5237,PAYLOAD,2024-06-13 16:00:29,15.08843184,0.000124,53.218,320.2466,90.4292,269.6843,0.00018039,2.584e-05,0.0,0 STARLINK-5237,1 54196U 22141AR  24165.66700926  .00002584  00000-0  18039-3 0  9992,2 54196  53.2180 320.2466 0001240  90.4292 269.6843 15.08843184 90281,6917.871,95.437,540.593,538.878,0.0
54196.0,STARLINK-5237,PAYLOAD,2024-06-14 14:15:53,15.08839597,0.0001225,53.2175,316.0834,88.7922,271.321,0.00014311,1.99e-05,0.0,0 STARLINK-5237,1 54196U 22141AR  24166.59437191  .00001990  00000-0  14311-3 0  9995,2 54196  53.2175 316.0834 0001225  88.7922 271.3210 15.08839597 90427,6917.882,95.438,540.594,538.899,0.0
54196.0,STARLINK-5237,PAYLOAD,2024-06-14 19:02:02,15.08847421,0.0001463,53.2188,315.1908,87.226,272.89,0.00015776,2.224e-05,0.0,0 STARLINK-5237,1 54196U 22141AR  24166.79308856  .00002224  00000-0  15776-3 0  9999,2 54196  53.2188 315.1908 0001463  87.2260 272.8900 15.08847421 90456,6917.858,95.437,540.735,538.711,0.0
54196.0,STARLINK-5237,PAYLOAD,2024-06-15 14:06:40,15.08843869,0.0001435,53.2181,311.6212,77.9169,282.1984,0.00010726,1.42e-05,0.0,0 STARLINK-5237,1 54196U 22141AR  24167.58796940  .00001420  00000-0  10726-3 0  9999,2 54196  53.2181 311.6212 0001435  77.9169 282.1984 15.08843869 90572,6917.869,95.437,540.726,538.741,0.0
54196.0,STARLINK-5237,PAYLOAD,2024-06-15 18:52:49,15.0884905,0.0001523,53.2176,310.7276,78.6355,281.4808,0.00014704,2.053e-05,0.0,0 STARLINK-5237,1 54196U 22141AR  24167.78668669  .00002053  00000-0  14704-3 0  9990,2 54196  53.2176 310.7276 0001523  78.6355 281.4808 15.08849050 90608,6917.853,95.437,540.771,538.664,0.0
54196.0,STARLINK-5237,PAYLOAD,2024-06-16 13:57:27,15.08842607,0.0001548,53.2194,307.1563,85.8779,274.239,0.00010398,1.367e-05,0.0,0 STARLINK-5237,1 54196U 22141AR  24168.58156965  .00001367  00000-0  10398-3 0  9992,2 54196  53.2194 307.1563 0001548  85.8779 274.2390 15.08842607 90724,6917.872,95.437,540.808,538.667,0.0
54196.0,STARLINK-5237,PAYLOAD,2024-06-16 15:32:50,15.08840133,0.0001213,53.2185,306.8595,88.3199,271.7932,6.9357e-05,8.16e-06,0.0,0 STARLINK-5237,1 54196U 22141AR  24168.64781021  .00000816  00000-0  69357-4 0  9994,2 54196  53.2185 306.8595 0001213  88.3199 271.7932 15.08840133 90735,6917.88,95.438,540.584,538.906,0.0
54196.0,STARLINK-5237,PAYLOAD,2024-06-17 18:34:23,15.08843986,0.0001187,53.2182,301.8051,96.538,263.5748,4.1263e-05,3.69e-06,0.0,0 STARLINK-5237,1 54196U 22141AR  24169.77388872  .00000369  00000-0  41263-4 0  9995,2 54196  53.2182 301.8051 0001187  96.5380 263.5748 15.08843986 91135,6917.868,95.437,540.554,538.912,0.0
54196.0,STARLINK-5237,PAYLOAD,2024-06-18 15:14:24,15.08842236,0.0001167,53.2171,297.9389,98.4675,261.645,0.0001225,1.662e-05,0.0,0 STARLINK-5237,1 54196U 22141AR  24170.63500903  .00001662  00000-0  12250-3 0  9993,2 54196  53.2171 297.9389 0001167  98.4675 261.6450 15.08842236 91033,6917.874,95.437,540.546,538.931,0.0
54196.0,STARLINK-5237,PAYLOAD,2024-06-19 11:54:26,15.08833725,0.0001264,53.2175,294.0751,101.6244,258.489,7.5858e-05,9.19e-06,0.0,0 STARLINK-5237,1 54196U 22141AR  24171.49613706  .00000919  00000-0  75858-4 0  9992,2 54196  53.2175 294.0751 0001264 101.6244 258.4890 15.08833725 91399,6917.9,95.438,540.639,538.89,0.0
54196.0,STARLINK-5237,PAYLOAD,2024-06-19 13:29:48,15.08852267,0.0001168,53.2181,293.7784,100.3468,259.7656,-0.00015908,-2.82e-05,0.0,0 STARLINK-5237,1 54196U 22141AR  24171.56237221 -.00002820  00000-0 -15908-3 0  9998,2 54196  53.2181 293.7784 0001168 100.3468 259.7656 15.08852267 91177,6917.843,95.437,540.516,538.9,0.0
54196.0,STARLINK-5237,PAYLOAD,2024-06-19 15:05:12,15.08840385,0.0001253,53.2183,293.4829,97.4814,262.632,5.3029e-05,5.56e-06,0.0,0 STARLINK-5237,1 54196U 22141AR  24171.62861408  .00000556  00000-0  53029-4 0  9994,2 54196  53.2183 293.4829 0001253  97.4814 262.6320 15.08840385 91182,6917.879,95.438,540.611,538.877,0.0
54196.0,STARLINK-5237,PAYLOAD,2024-06-20 13:20:35,15.08846759,0.0001292,53.2188,289.3169,98.9625,261.1513,7.9967e-05,9.85e-06,0.0,0 STARLINK-5237,1 54196U 22141AR  24172.55597046  .00000985  00000-0  79967-4 0  9996,2 54196  53.2188 289.3169 0001292  98.9625 261.1513 15.08846759 91322,6917.86,95.437,540.619,538.831,0.0
54196.0,STARLINK-5237,PAYLOAD,2024-06-20 14:55:58,15.08846314,0.0001327,53.2185,289.022,100.0868,260.0273,0.00011235,1.501e-05,0.0,0 STARLINK-5237,1 54196U 22141AR  24172.62220983  .00001501  00000-0  11235-3 0  9995,2 54196  53.2185 289.0220 0001327 100.0868 260.0273 15.08846314 91561,6917.861,95.437,540.644,538.808,0.0
54196.0,STARLINK-5237,PAYLOAD,2024-06-21 00:28:18,15.088331,0.0001334,53.2183,287.2383,99.2381,260.8762,0.00021926,3.203e-05,0.0,0 STARLINK-5237,1 54196U 22141AR  24173.01965696  .00003203  00000-0  21926-3 0  9995,2 54196  53.2183 287.2383 0001334  99.2381 260.8762 15.08833100 91623,6917.901,95.438,540.689,538.844,0.0
54196.0,STARLINK-5237,PAYLOAD,2024-06-21 13:11:24,15.08833085,0.0001555,53.2195,284.868,113.8188,246.2968,2.1334e-05,5.2e-07,0.0,0 STARLINK-5237,1 54196U 22141AR  24173.54958350  .00000052  00000-0  21334-4 0  9995,2 54196  53.2195 284.8680 0001555 113.8188 246.2968 15.08833085 91473,6917.902,95.438,540.842,538.691,0.0
54196.0,STARLINK-5237,PAYLOAD,2024-06-21 16:22:10,15.08833652,0.000147,53.2192,284.2617,81.0166,279.0992,4.1907e-05,3.79e-06,0.0,0 STARLINK-5237,1 54196U 22141AR  24173.68206368  .00000379  00000-0  41907-4 0  9995,2 54196  53.2192 284.2617 0001470  81.0166 279.0992 15.08833652 91721,6917.9,95.438,540.782,538.748,0.0
54196.0,STARLINK-5237,PAYLOAD,2024-06-22 13:02:11,15.08839951,0.0001426,53.2191,280.3966,83.8635,276.2519,2.6806e-05,1.39e-06,0.0,0 STARLINK-5237,1 54196U 22141AR  24174.54318319  .00000139  00000-0  26806-4 0  9996,2 54196  53.2191 280.3966 0001426  83.8635 276.2519 15.08839951 91627,6917.881,95.438,540.732,538.759,0.0
